{
  "type": "FeatureCollection",
  "features": [
    {
      "type": "Feature",
      "properties": {
        "norad_id": 37461,
        "name": "FENGYUN 1C DEB",
        "group": "fengyun-1c-debris",
        "lat": 50.586171111383244,
        "lon": -140.81329098201923,
        "alt_km": 1180.5037688394004,
        "timestamp": "2025-12-08T17:43:05.220806+00:00",
        "meta_object_name": "FENGYUN 1C DEB",
        "meta_object_id": "1999-025EJF",
        "meta_epoch": "2025-11-27T22:25:56.122176",
        "meta_mean_motion": 12.7907076,
        "meta_eccentricity": 0.0667413,
        "meta_inclination": 99.8664,
        "meta_ra_of_asc_node": 221.8984,
        "meta_arg_of_pericenter": 359.7811,
        "meta_mean_anomaly": 0.291,
        "meta_ephemeris_type": 0,
        "meta_classification_type": "U",
        "meta_norad_cat_id": 37461,
        "meta_element_set_no": 999,
        "meta_rev_at_epoch": 51845,
        "meta_bstar": 0.0053613,
        "meta_mean_motion_dot": 3.048e-05,
        "meta_mean_motion_ddot": 0,
        "tle_line1": "1 37461U 99025EJF 25331.93467734  .00003048  00000+0  53613-2 0  9997",
        "tle_line2": "2 37461  99.8664 221.8984 0667413 359.7811   0.2910 12.79070760518454"
      },
      "geometry": {
        "type": "Point",
        "coordinates": [
          -140.81329098201923,
          50.586171111383244
        ]
      }
    },
    {
      "type": "Feature",
      "properties": {
        "norad_id": 37464,
        "name": "FENGYUN 1C DEB",
        "group": "fengyun-1c-debris",
        "lat": -73.13648533667966,
        "lon": 37.65013082239758,
        "alt_km": 1309.9713771174856,
        "timestamp": "2025-12-08T17:43:05.220817+00:00",
        "meta_object_name": "FENGYUN 1C DEB",
        "meta_object_id": "1999-025EJJ",
        "meta_epoch": "2025-12-02T12:30:15.753024",
        "meta_mean_motion": 13.46817594,
        "meta_eccentricity": 0.04515106,
        "meta_inclination": 102.7064,
        "meta_ra_of_asc_node": 257.8588,
        "meta_arg_of_pericenter": 139.9323,
        "meta_mean_anomaly": 223.6036,
        "meta_ephemeris_type": 0,
        "meta_classification_type": "U",
        "meta_norad_cat_id": 37464,
        "meta_element_set_no": 999,
        "meta_rev_at_epoch": 60784,
        "meta_bstar": 0.002719918,
        "meta_mean_motion_dot": 3.007e-05,
        "meta_mean_motion_ddot": 0,
        "tle_line1": "1 37464U 99025EJJ 25336.52101566  .00003007  00000+0  27199-2 0  9993",
        "tle_line2": "2 37464 102.7064 257.8588 0451510 139.9323 223.6036 13.46817594607840"
      },
      "geometry": {
        "type": "Point",
        "coordinates": [
          37.65013082239758,
          -73.13648533667966
        ]
      }
    },
    {
      "type": "Feature",
      "properties": {
        "norad_id": 37470,
        "name": "FENGYUN 1C DEB",
        "group": "fengyun-1c-debris",
        "lat": -12.359015402310753,
        "lon": -56.229783607198115,
        "alt_km": 567.8616981495516,
        "timestamp": "2025-12-08T17:43:05.220827+00:00",
        "meta_object_name": "FENGYUN 1C DEB",
        "meta_object_id": "1999-025EJQ",
        "meta_epoch": "2025-12-02T08:43:26.114016",
        "meta_mean_motion": 14.99042865,
        "meta_eccentricity": 0.00053598,
        "meta_inclination": 98.6674,
        "meta_ra_of_asc_node": 118.5972,
        "meta_arg_of_pericenter": 185.6749,
        "meta_mean_anomaly": 174.4411,
        "meta_ephemeris_type": 0,
        "meta_classification_type": "U",
        "meta_norad_cat_id": 37470,
        "meta_element_set_no": 999,
        "meta_rev_at_epoch": 65306,
        "meta_bstar": 0.0063565181,
        "meta_mean_motion_dot": 0.00077884,
        "meta_mean_motion_ddot": 0,
        "tle_line1": "1 37470U 99025EJQ 25336.36349669  .00077884  00000+0  63565-2 0  9991",
        "tle_line2": "2 37470  98.6674 118.5972 0005359 185.6749 174.4411 14.99042865653068"
      },
      "geometry": {
        "type": "Point",
        "coordinates": [
          -56.229783607198115,
          -12.359015402310753
        ]
      }
    },
    {
      "type": "Feature",
      "properties": {
        "norad_id": 37474,
        "name": "FENGYUN 1C DEB",
        "group": "fengyun-1c-debris",
        "lat": 23.89315486165835,
        "lon": 11.464555779331912,
        "alt_km": 552.7402704743808,
        "timestamp": "2025-12-08T17:43:05.220838+00:00",
        "meta_object_name": "FENGYUN 1C DEB",
        "meta_object_id": "1999-025EJU",
        "meta_epoch": "2025-12-08T07:15:02.876832",
        "meta_mean_motion": 14.74997247,
        "meta_eccentricity": 0.01320555,
        "meta_inclination": 99.1645,
        "meta_ra_of_asc_node": 186.8701,
        "meta_arg_of_pericenter": 148.7711,
        "meta_mean_anomaly": 212.1426,
        "meta_ephemeris_type": 0,
        "meta_classification_type": "U",
        "meta_norad_cat_id": 37474,
        "meta_element_set_no": 999,
        "meta_rev_at_epoch": 62310,
        "meta_bstar": 0.001429737,
        "meta_mean_motion_dot": 0.00011023,
        "meta_mean_motion_ddot": 0,
        "tle_line1": "1 37474U 99025EJU 25342.30211663  .00011023  00000+0  14297-2 0  9999",
        "tle_line2": "2 37474  99.1645 186.8701 0132055 148.7711 212.1426 14.74997247623101"
      },
      "geometry": {
        "type": "Point",
        "coordinates": [
          11.464555779331912,
          23.89315486165835
        ]
      }
    },
    {
      "type": "Feature",
      "properties": {
        "norad_id": 37477,
        "name": "FENGYUN 1C DEB",
        "group": "fengyun-1c-debris",
        "lat": 81.12117768543102,
        "lon": -116.7205796983578,
        "alt_km": 794.8287775501258,
        "timestamp": "2025-12-08T17:43:05.220848+00:00",
        "meta_object_name": "FENGYUN 1C DEB",
        "meta_object_id": "1999-025EJX",
        "meta_epoch": "2025-12-05T11:28:45.537312",
        "meta_mean_motion": 14.19689266,
        "meta_eccentricity": 0.0036971,
        "meta_inclination": 98.6048,
        "meta_ra_of_asc_node": 344.3504,
        "meta_arg_of_pericenter": 127.046,
        "meta_mean_anomaly": 233.4107,
        "meta_ephemeris_type": 0,
        "meta_classification_type": "U",
        "meta_norad_cat_id": 37477,
        "meta_element_set_no": 999,
        "meta_rev_at_epoch": 81811,
        "meta_bstar": 0.001143971,
        "meta_mean_motion_dot": 2.393e-05,
        "meta_mean_motion_ddot": 0,
        "tle_line1": "1 37477U 99025EJX 25339.47830483  .00002393  00000+0  11440-2 0  9990",
        "tle_line2": "2 37477  98.6048 344.3504 0036971 127.0460 233.4107 14.19689266818115"
      },
      "geometry": {
        "type": "Point",
        "coordinates": [
          -116.7205796983578,
          81.12117768543102
        ]
      }
    },
    {
      "type": "Feature",
      "properties": {
        "norad_id": 37478,
        "name": "FENGYUN 1C DEB",
        "group": "fengyun-1c-debris",
        "lat": 79.14503814448135,
        "lon": -151.9168969369844,
        "alt_km": 1477.8143160286509,
        "timestamp": "2025-12-08T17:43:05.220858+00:00",
        "meta_object_name": "FENGYUN 1C DEB",
        "meta_object_id": "1999-025EJY",
        "meta_epoch": "2025-12-05T17:22:19.375968",
        "meta_mean_motion": 13.02904965,
        "meta_eccentricity": 0.05487468,
        "meta_inclination": 99.6454,
        "meta_ra_of_asc_node": 322.9064,
        "meta_arg_of_pericenter": 335.2664,
        "meta_mean_anomaly": 22.3015,
        "meta_ephemeris_type": 0,
        "meta_classification_type": "U",
        "meta_norad_cat_id": 37478,
        "meta_element_set_no": 999,
        "meta_rev_at_epoch": 56470,
        "meta_bstar": 0.0085592923,
        "meta_mean_motion_dot": 5.462e-05,
        "meta_mean_motion_ddot": 0,
        "tle_line1": "1 37478U 99025EJY 25339.72383537  .00005462  00000+0  85593-2 0  9992",
        "tle_line2": "2 37478  99.6454 322.9064 0548746 335.2664  22.3015 13.02904965564701"
      },
      "geometry": {
        "type": "Point",
        "coordinates": [
          -151.9168969369844,
          79.14503814448135
        ]
      }
    },
    {
      "type": "Feature",
      "properties": {
        "norad_id": 37589,
        "name": "FENGYUN 1C DEB",
        "group": "fengyun-1c-debris",
        "lat": -53.30737890407561,
        "lon": -102.30360486119106,
        "alt_km": 797.2930051015574,
        "timestamp": "2025-12-08T17:43:05.220869+00:00",
        "meta_object_name": "FENGYUN 1C DEB",
        "meta_object_id": "1999-025EKH",
        "meta_epoch": "2025-12-02T23:49:55.171488",
        "meta_mean_motion": 14.07988933,
        "meta_eccentricity": 0.01206156,
        "meta_inclination": 99.0733,
        "meta_ra_of_asc_node": 239.5393,
        "meta_arg_of_pericenter": 291.4169,
        "meta_mean_anomaly": 67.4168,
        "meta_ephemeris_type": 0,
        "meta_classification_type": "U",
        "meta_norad_cat_id": 37589,
        "meta_element_set_no": 999,
        "meta_rev_at_epoch": 82447,
        "meta_bstar": 0.0045555953,
        "meta_mean_motion_dot": 8.24e-05,
        "meta_mean_motion_ddot": 0,
        "tle_line1": "1 37589U 99025EKH 25336.99299967  .00008240  00000+0  45556-2 0  9996",
        "tle_line2": "2 37589  99.0733 239.5393 0120615 291.4169  67.4168 14.07988933824475"
      },
      "geometry": {
        "type": "Point",
        "coordinates": [
          -102.30360486119106,
          -53.30737890407561
        ]
      }
    }
  ]
}